[{"OBJECT_NAME":"BEIDOU-3 M25 (C47)","OBJECT_ID":"2024-168B","EPOCH":"2026-03-05T10:44:42.803232","MEAN_MOTION":1.8623022,"ECCENTRICITY":0.0004268,"INCLINATION":54.5648,"RA_OF_ASC_NODE":305.8483,"ARG_OF_PERICENTER":318.9478,"MEAN_ANOMALY":147.1808,"EPHEMERIS_TYPE":0,"CLASSIFICATION_TYPE":"U","NORAD_CAT_ID":61186,"ELEMENT_SET_NO":999,"REV_AT_EPOCH":985,"BSTAR":0,"MEAN_MOTION_DOT":-6.7e-7,"MEAN_MOTION_DDOT":0},{"OBJECT_NAME":"BEIDOU-3 M27 (C49)","OBJECT_ID":"2024-168C","EPOCH":"2026-03-05T07:36:19.714176","MEAN_MOTION":1.86230358,"ECCENTRICITY":0.000298,"INCLINATION":54.5604,"RA_OF_ASC_NODE":305.8361,"ARG_OF_PERICENTER":20.4343,"MEAN_ANOMALY":132.974,"EPHEMERIS_TYPE":0,"CLASSIFICATION_TYPE":"U","NORAD_CAT_ID":61187,"ELEMENT_SET_NO":999,"REV_AT_EPOCH":732,"BSTAR":0,"MEAN_MOTION_DOT":-6.7e-7,"MEAN_MOTION_DDOT":0}]
